ZHUHAI-1 02 (CAS-4B)    
1 42759U 17034B   23110.40163149  .00012251  00000+0  63035-3 0  9997
2 42759  43.0171  76.6689 0009520  81.6858  56.3167 15.16349080322865
ZHUHAI-1 01 (CAS-4A)    
1 42761U 17034D   23110.35113993  .00014120  00000+0  72279-3 0  9993
2 42761  43.0159  75.5020 0009805  88.5111  39.4920 15.16430803322868
MAX VALIER SAT          
1 42778U 17036P   23110.04882105  .00031483  00000+0  89262-3 0  9998
2 42778  97.1631 146.3509 0006378 318.1083  41.9673 15.36162698323794
RADFXSAT (FOX-1B)       
1 43017U 17073E   23110.46692360  .00007116  00000+0  50766-3 0  9997
2 43017  97.6382 357.0958 0234258 259.7201  97.7528 14.85329666292617
FOX-1D (AO-92)          
1 43137U 18004AC  23110.45851233  .00038228  00000+0  89293-3 0  9995
2 43137  97.3313 189.1879 0004762 356.0369   4.0839 15.42079915293405
DIWATA-2B               
1 43678U 18084H   23110.49694045  .00003387  00000+0  32951-3 0  9990
2 43678  98.0115 253.3409 0009378   0.6889 359.4361 14.93220991243659
ES'HAIL 2               
1 43700U 18090A   23110.51745369  .00000137  00000+0  00000+0 0  9998
2 43700   0.0161 250.6058 0001167 163.3084   6.5226  1.00274631 16103
FOX-1CLIFF (AO-95)      
1 43770U 18099N   23110.17189424  .00007124  00000+0  58853-3 0  9996
2 43770  97.5757 173.2793 0011727 326.1476  33.8998 14.99206166238919
ITASAT 1                
1 43786U 18099AE  23110.16295728  .00005851  00000+0  48696-3 0  9996
2 43786  97.5791 174.3077 0013581 318.7458  41.2738 14.98972193238956
JY1SAT (JO-97)          
1 43803U 18099AX  23110.16511522  .00007680  00000+0  61899-3 0  9991
2 43803  97.5731 174.2520 0012356 306.3068  53.7014 15.00125028238991
UWE-4                   
1 43880U 18111E   23110.19278588  .00009347  00000+0  72508-3 0  9997
2 43880  97.6435  16.2944 0017004  18.9751 341.2103 15.01478516235662
NEXUS (FO-99)           
1 43937U 19003F   23110.05914719  .00065306  00000+0  12884-2 0  9996
2 43937  97.0937 138.2117 0016822 127.3484 232.9302 15.46804445237042
JAISAT-1                
1 44419U 19038F   23110.17528987  .00029964  00000+0  11096-2 0  9995
2 44419  97.6716  90.0962 0017534 138.6990 221.5578 15.27463858209675
DUCHIFAT-3              
1 44854U 19089C   23110.28022568  .00012891  00000+0  88727-3 0  9997
2 44854  36.9636  77.1223 0009150 216.8257 294.8042 15.05283825184100
CAS-6 (TIANQIN 1)       
1 44881U 19093C   23110.38494540  .00001752  00000+0  22502-3 0  9999
2 44881  97.8619 189.8207 0013386 266.2834  93.6861 14.82391708180234
RS-44 & BREEZE-KM R/B   
1 44909U 19096E   23110.28963531  .00000016  00000+0  26672-4 0  9998
2 44909  82.5266  26.4143 0216856 322.6282  35.9900 12.79720043154753
BY70-2                  
1 45857U 20042B   23110.76938915  .00028288  00000+0  30586-2 0  9993
2 45857  97.9262 190.5648 0010726 187.6160 172.4914 14.88203046150992
SALSAT                  
1 46495U 20068K   23110.37221366  .00006882  00000+0  46066-3 0  9999
2 46495  97.7664  57.8052 0014328 323.0777  36.9462 15.07172821140361
RADFXSAT-2 (AO-109)     
1 47311U 21002C   23110.49826146  .00031685  00000+0  89369-3 0  9998
2 47311  60.6808 279.8397 0024749 145.5796 214.6906 15.35954486125426
UVSQ-SAT                
1 47438U 21006AB  23110.10197599  .00023806  00000+0  10246-2 0  9996
2 47438  97.3903 168.1022 0008522 285.3298  74.6996 15.22581091123802
DIY-1 (ARDUIQUBE)       
1 47963U 21022AH  23110.21199370  .00136618  00000+0  30863-2 0  9991
2 47963  97.5035  16.3778 0013546 130.0876 230.1561 15.42575052113601
XW-3 (CAS-9)            
1 50466U 21131B   23110.52240131  .00001010  00000+0  34280-3 0  9995
2 50466  98.5520 192.2495 0003288 324.1431  35.9535 14.38836802 69067
TEVEL-3                 
1 50988U 22002E   23110.68138051  .00028705  00000+0  12243-2 0  9990
2 50988  97.4380 178.1192 0009197  83.5130  17.9271 15.22844290 70009
TEVEL-8                 
1 50989U 22002F   23110.63246184  .00028720  00000+0  12272-2 0  9992
2 50989  97.4401 178.1238 0009378  83.2290  20.6803 15.22780436 69999
TEVEL-5                 
1 50998U 22002Q   23110.45018814  .00029724  00000+0  12403-2 0  9990
2 50998  97.4385 178.2110 0010496  80.1117 336.3702 15.23567465 69998
TEVEL-6                 
1 50999U 22002R   23110.79224160  .00029580  00000+0  12336-2 0  9996
2 50999  97.4378 178.5457 0010394  79.0241  60.3249 15.23590251 70047
TEVEL-1                 
1 51013U 22002AF  23110.76341822  .00028545  00000+0  12189-2 0  9992
2 51013  97.4380 178.1518 0009105  83.4394  62.7260 15.22808007 70014
TEVEL-7                 
1 51062U 22002CG  23110.77254502  .00028689  00000+0  12253-2 0  9996
2 51062  97.4390 178.2372 0009208  80.9929  61.7953 15.22799641 70019
TEVEL-4                 
1 51063U 22002CH  23110.77644118  .00028576  00000+0  12219-2 0  9990
2 51063  97.4397 178.2296 0009404  82.4011  58.1460 15.22757215 70013
TEVEL-2                 
1 51069U 22002CP  23110.41217769  .00028682  00000+0  12239-2 0  9995
2 51069  97.4375 177.8268 0009209  84.0220 332.3775 15.22830481 69967
GREENCUBE               
1 53106U 22080B   23108.90790059 -.00000003  00000+0  00000+0 0  9992
2 53106  70.1728 340.3248 0008244 198.7495 161.2861  6.42557220 17946
RS29S (SXC3-2110 CYCLO*)
1 53373U 22096D   23110.54567370  .00043423  00000+0  12595-2 0  9993
2 53373  97.4191  16.3167 0003114  70.6633  10.5973 15.35394473 38833
RS32S (SXC3-212 MONITO*)
1 53374U 22096E   23110.68396641  .00035827  00000+0  10578-2 0  9998
2 53374  97.4170  16.4127 0002717  61.6308  24.6707 15.34879499 38853
RS34S (SXC3-218 KUZBAS*)
1 53375U 22096F   23110.77254097  .00033534  00000+0  10372-2 0  9992
2 53375  97.4191  16.3225 0002516  59.2148  30.3554 15.33421255 38853
RS23S (SXC3-21 UTMN)    
1 53376U 22096G   23110.68250215  .00034530  00000+0  10528-2 0  9991
2 53376  97.4186  16.2858 0002614  66.5987  20.0324 15.33868929 38843
RS28S (SXC3-214 MIET-A*)
1 53377U 22096H   23110.70056997  .00030990  00000+0  96430-3 0  9999
2 53377  97.4200  16.2586 0002436  66.6129 352.1267 15.33245764 38841
RS26S (KAI-1)           
1 53378U 22096J   23110.69590341  .00026124  00000+0  84215-3 0  9996
2 53378  97.4202  16.1278 0002125  56.4022  28.6458 15.32150384 38833
RS19S (SXC3-219 ISOI)   
1 53381U 22096M   23110.61655089  .00031980  00000+0  97175-3 0  9998
2 53381  97.4184  16.3693 0001057 269.7880 174.9017 15.33997124 38842
RS21S (CUBESX-HSE-2)    
1 53383U 22096P   23110.60250166  .00033740  00000+0  10170-2 0  9991
2 53383  97.4188  16.3958 0001250 272.9649 172.1907 15.34241594 38848
RS30S (SXC3-217 SIREN)  
1 53384U 22096Q   23110.71639281  .00027958  00000+0  87176-3 0  9998
2 53384  97.4196  16.4031 0001598 258.7186 188.3991 15.33202874 38854
RS20S (GEOSCAN-EDELVEIS)
1 53385U 22096R   23110.57458542  .00044837  00000+0  12422-2 0  9998
2 53385  97.4178  16.7372 0001264 253.1059 227.2250 15.36826795 38896
RS33S (SXC3-215 VIZARD) 
1 53386U 22096S   23110.72421258  .00056983  00000+0  14493-2 0  9995
2 53386  97.4180  17.2695 0001636 248.6301 163.8556 15.39408272 38934
CAS-5A (FO-118)         
1 54684U 22167C   23110.84027676  .00019912  00000+0  11382-2 0  9990
2 54684  97.5518 248.8972 0014814 169.7014 316.3694 15.12629191 20001
